{
  "type": "FeatureCollection",
  "features": [
    {
      "type": "Feature",
      "properties": {
        "norad_id": 64903,
        "name": "CO3D 1",
        "group": "resource",
        "lat": 19.689542857718205,
        "lon": 72.72741901266428,
        "alt_km": 505.0475354086566,
        "timestamp": "2025-12-25T07:41:09.381079+00:00",
        "meta_object_name": "CO3D 1",
        "meta_object_id": "2025-156E",
        "meta_epoch": "2025-12-24T23:42:00.216000",
        "meta_mean_motion": 15.20192091,
        "meta_eccentricity": 8.937e-05,
        "meta_inclination": 97.4338,
        "meta_ra_of_asc_node": 75.0775,
        "meta_arg_of_pericenter": 69.699,
        "meta_mean_anomaly": 290.4341,
        "meta_ephemeris_type": 0,
        "meta_classification_type": "U",
        "meta_norad_cat_id": 64903,
        "meta_element_set_no": 999,
        "meta_rev_at_epoch": 2306,
        "meta_bstar": 0.00028982703,
        "meta_mean_motion_dot": 6.21e-05,
        "meta_mean_motion_ddot": 0,
        "tle_line1": "1 64903U 25156E   25358.98750250  .00006210  00000+0  28983-3 0  9991",
        "tle_line2": "2 64903  97.4338  75.0775 0000893  69.6990 290.4341 15.20192091 23062"
      },
      "geometry": {
        "type": "Point",
        "coordinates": [
          72.72741901266428,
          19.689542857718205
        ]
      }
    },
    {
      "type": "Feature",
      "properties": {
        "norad_id": 66514,
        "name": "SENTINEL-6B",
        "group": "resource",
        "lat": 31.662205933587963,
        "lon": -59.61075248644201,
        "alt_km": 1338.410293093165,
        "timestamp": "2025-12-25T07:41:09.381089+00:00",
        "meta_object_name": "SENTINEL-6B",
        "meta_object_id": "2025-264A",
        "meta_epoch": "2025-12-24T15:56:27.687840",
        "meta_mean_motion": 12.80929573,
        "meta_eccentricity": 0.00078982,
        "meta_inclination": 66.0398,
        "meta_ra_of_asc_node": 137.6666,
        "meta_arg_of_pericenter": 269.9778,
        "meta_mean_anomaly": 90.0333,
        "meta_ephemeris_type": 0,
        "meta_classification_type": "U",
        "meta_norad_cat_id": 66514,
        "meta_element_set_no": 999,
        "meta_rev_at_epoch": 481,
        "meta_bstar": 6.3146286e-05,
        "meta_mean_motion_dot": -4.6e-07,
        "meta_mean_motion_ddot": 0,
        "tle_line1": "1 66514U 25264A   25358.66420935 -.00000046  00000+0  63146-4 0  9993",
        "tle_line2": "2 66514  66.0398 137.6666 0007898 269.9778  90.0333 12.80929573  4818"
      },
      "geometry": {
        "type": "Point",
        "coordinates": [
          -59.61075248644201,
          31.662205933587963
        ]
      }
    }
  ]
}